STARLINK-31434          
1 59215U 24046Q   26068.55454184  .00001180  00000+0  51971-4 0  9992
2 59215  53.1614 155.6266 0000856  90.4307 269.6792 15.30184588113028
TEVEL2-6                
1 63215U 25052F   26068.64958975  .00021046  00000+0  70909-3 0  9996
2 63215  97.4016 325.0381 0004769  95.6604 264.5181 15.30760889 54861
