[{"OBJECT_NAME":"STARLINK-31434","OBJECT_ID":"2024-046Q","EPOCH":"2026-03-09T13:18:32.414976","MEAN_MOTION":15.30184588,"ECCENTRICITY":8.56e-5,"INCLINATION":53.1614,"RA_OF_ASC_NODE":155.6266,"ARG_OF_PERICENTER":90.4307,"MEAN_ANOMALY":269.6792,"EPHEMERIS_TYPE":0,"CLASSIFICATION_TYPE":"U","NORAD_CAT_ID":59215,"ELEMENT_SET_NO":999,"REV_AT_EPOCH":11302,"BSTAR":5.1971e-5,"MEAN_MOTION_DOT":1.18e-5,"MEAN_MOTION_DDOT":0},{"OBJECT_NAME":"TEVEL2-6","OBJECT_ID":"2025-052F","EPOCH":"2026-03-09T15:35:24.554400","MEAN_MOTION":15.30760889,"ECCENTRICITY":0.0004769,"INCLINATION":97.4016,"RA_OF_ASC_NODE":325.0381,"ARG_OF_PERICENTER":95.6604,"MEAN_ANOMALY":264.5181,"EPHEMERIS_TYPE":0,"CLASSIFICATION_TYPE":"U","NORAD_CAT_ID":63215,"ELEMENT_SET_NO":999,"REV_AT_EPOCH":5486,"BSTAR":0.00070909,"MEAN_MOTION_DOT":0.00021046,"MEAN_MOTION_DDOT":0}]
